STARLINK-33560          
1 62282U 24237R   26068.43907692  .00027765  00000+0  10138-2 0  9991
2 62282  42.9963 217.7655 0000998 260.4585  99.6154 15.27609265 71065
AL MUNTHER              
1 63240U 25052AG  26068.64540749  .00017933  00000+0  65015-3 0  9992
2 63240  97.4001 323.9152 0008027 130.7043 229.4895 15.28381521 54798
